
# Worst residual: 118.65 km
# MJD 58387.000000 (2018 Sep 26  0:00)
ZTF00Y9 = ZTF00Yp = ZTF00ah
1 89994U 00000AAF 18269.49919926  .00000000  00000-0  00000-0 0  2649
2 89994 023.5795 016.9171 7858025 177.9825 091.6812 00.94263176    06

# Worst residual: 101.48 km
# MJD 58388.000000 (2018 Sep 27  0:00)
ZTF00Y9 = ZTF00Yp = ZTF00ah
1 89994U 00000AAF 18270.49919926  .00000000  00000-0  00000-0 0  2641
2 89994 023.6439 016.8496 7867769 178.4702 070.2742 00.94339466    07

# Worst residual: 97.45 km
# MJD 58389.000000 (2018 Sep 28  0:00)
ZTF00Y9 = ZTF00Yp = ZTF00ah
1 89994U 00000AAF 18271.49919926  .00000000  00000-0  00000-0 0  2642
2 89994 023.7110 016.7699 7874649 178.9726 048.8361 00.94410065    07

# Worst residual: 88.21 km
# MJD 58390.000000 (2018 Sep 29  0:00)
ZTF00Y9 = ZTF00Yp = ZTF00ah
1 89994U 00000AAF 18272.49919926  .00000000  00000-0  00000-0 0  2643
2 89994 023.7991 016.6964 7881116 179.4814 027.3706 00.94470597    00

# Worst residual: 92.04 km
# MJD 58391.000000 (2018 Sep 30  0:00)
ZTF00Y9 = ZTF00Yp = ZTF00ah
1 89994U 00000AAF 18273.49919926  .00000000  00000-0  00000-0 0  2644
2 89994 023.8691 016.6224 7888417 179.9973 005.8472 00.94482384    07

# Worst residual: 115.77 km
# MJD 58392.000000 (2018 Oct  1  0:00)
ZTF00Y9 = ZTF00Yp = ZTF00ah
1 89994U 00000AAF 18274.49919926  .00000000  00000-0  00000-0 0  2645
2 89994 023.9473 016.5379 7895523 180.5104 344.3676 00.94436630    06

# Worst residual: 130.00 km
# MJD 58393.000000 (2018 Oct  2  0:00)
ZTF00Y9 = ZTF00Yp = ZTF00ah
1 89994U 00000AAF 18275.49919926  .00000000  00000-0  00000-0 0  2646
2 89994 024.0298 016.4660 7903132 181.0069 322.8894 00.94386934    01

# Worst residual: 122.26 km
# MJD 58394.000000 (2018 Oct  3  0:00)
ZTF00Y9 = ZTF00Yp = ZTF00ah
1 89994U 00000AAF 18276.49919926  .00000000  00000-0  00000-0 0  2647
2 89994 024.0979 016.3857 7909800 181.5058 301.4392 00.94314044    04

# Worst residual: 135.63 km
# MJD 58395.000000 (2018 Oct  4  0:00)
ZTF00Y9 = ZTF00Yp = ZTF00ah
1 89994U 00000AAF 18277.49919926  .00000000  00000-0  00000-0 0  2648
2 89994 024.1769 016.3121 7913620 181.9872 280.0374 00.94242740    04

# Worst residual: 139.85 km
# MJD 58396.000000 (2018 Oct  5  0:00)
ZTF00Y9 = ZTF00Yp = ZTF00ah
1 89994U 00000AAF 18278.49919926  .00000000  00000-0  00000-0 0  2649
2 89994 024.2427 016.2355 7915558 182.4840 258.6210 00.94175861    06

# Worst residual: 80.25 km
# MJD 58397.000000 (2018 Oct  6  0:00)
ZTF00Y9 = ZTF00Yp = ZTF00ah
1 89994U 00000AAF 18279.49919926  .00000000  00000-0  00000-0 0  2640
2 89994 024.3120 016.1633 7916635 182.9766 237.2399 00.94131689    05

# Worst residual: 48.04 km
# MJD 58398.000000 (2018 Oct  7  0:00)
ZTF00Y9 = ZTF00Yp = ZTF00ah
1 89994U 00000AAF 18280.49919926  .00000000  00000-0  00000-0 0  2642
2 89994 024.3801 016.0911 7915795 183.4877 215.8283 00.94075658    01

# Worst residual: 49.33 km
# MJD 58399.000000 (2018 Oct  8  0:00)
ZTF00Y9 = ZTF00Yp = ZTF00ah
1 89994U 00000AAF 18281.49919926  .00000000  00000-0  00000-0 0  2643
2 89994 024.4501 016.0225 7919088 183.9997 194.4317 00.94071940    04

# Worst residual: 48.27 km
# MJD 58400.000000 (2018 Oct  9  0:00)
ZTF00Y9 = ZTF00Yp = ZTF00ah
1 89994U 00000AAF 18282.49919926  .00000000  00000-0  00000-0 0  2644
2 89994 024.5221 015.9565 7921622 184.5111 173.0350 00.94073144    09

# Worst residual: 62.10 km
# MJD 58401.000000 (2018 Oct 10  0:00)
ZTF00Y9 = ZTF00Yp = ZTF00ah
1 89994U 00000AAF 18283.49919926  .00000000  00000-0  00000-0 0  2645
2 89994 024.5890 015.8922 7928798 185.0136 151.6409 00.94125000    07

# Worst residual: 83.90 km
# MJD 58402.000000 (2018 Oct 11  0:00)
ZTF00Y9 = ZTF00Yp = ZTF00ah
1 89994U 00000AAF 18284.49919926  .00000000  00000-0  00000-0 0  2646
2 89994 024.6643 015.8208 7933826 185.5027 130.2784 00.94167096    03

# Worst residual: 106.71 km
# MJD 58403.000000 (2018 Oct 12  0:00)
ZTF00Y9 = ZTF00Yp = ZTF00ah
1 89994U 00000AAF 18285.49919926  .00000000  00000-0  00000-0 0  2647
2 89994 024.7144 015.7625 7938605 185.9773 108.9035 00.94237696    09

# Worst residual: 104.08 km
# MJD 58404.000000 (2018 Oct 13  0:00)
ZTF00Y9 = ZTF00Yp = ZTF00ah
1 89994U 00000AAF 18286.49919926  .00000000  00000-0  00000-0 0  2648
2 89994 024.7934 015.7042 7939744 186.4537 087.5054 00.94298109    07

# Worst residual: 89.50 km
# MJD 58405.000000 (2018 Oct 14  0:00)
ZTF00Y9 = ZTF00Yp = ZTF00ah
1 89994U 00000AAF 18287.49919926  .00000000  00000-0  00000-0 0  2649
2 89994 024.8559 015.6626 7939324 186.9239 066.0928 00.94377376    02

# Worst residual: 84.92 km
# MJD 58406.000000 (2018 Oct 15  0:00)
ZTF00Y9 = ZTF00Yp = ZTF00ah
1 89994U 00000AAF 18288.49919926  .00000000  00000-0  00000-0 0  2640
2 89994 024.9198 015.5961 7938348 187.4189 044.6165 00.94448305    04

# Worst residual: 81.74 km
# MJD 58407.000000 (2018 Oct 16  0:00)
ZTF00Y9 = ZTF00Yp = ZTF00ah
1 89994U 00000AAF 18289.49919926  .00000000  00000-0  00000-0 0  2641
2 89994 024.9879 015.5401 7936638 187.9092 023.1236 00.94484162    09

# Worst residual: 111.25 km
# MJD 58408.000000 (2018 Oct 17  0:00)
ZTF00Y9 = ZTF00Yp = ZTF00ah
1 89994U 00000AAF 18290.49919926  .00000000  00000-0  00000-0 0  2643
2 89994 025.0531 015.4831 7935784 188.4096 001.5903 00.94469793    07

# Worst residual: 130.71 km
# MJD 58409.000000 (2018 Oct 18  0:00)
ZTF00Y9 = ZTF00Yp = ZTF00ah
1 89994U 00000AAF 18291.49919926  .00000000  00000-0  00000-0 0  2644
2 89994 025.1196 015.4267 7934026 188.8980 340.0881 00.94413328    01

# Worst residual: 126.57 km
# MJD 58410.000000 (2018 Oct 19  0:00)
ZTF00Y9 = ZTF00Yp = ZTF00ah
1 89994U 00000AAF 18292.49919926  .00000000  00000-0  00000-0 0  2645
2 89994 025.1824 015.3693 7932697 189.3742 318.6341 00.94338271    00

# Worst residual: 116.60 km
# MJD 58411.000000 (2018 Oct 20  0:00)
ZTF00Y9 = ZTF00Yp = ZTF00ah
1 89994U 00000AAF 18293.49919926  .00000000  00000-0  00000-0 0  2646
2 89994 025.2423 015.3104 7929467 189.8542 297.1849 00.94264201    02

# Worst residual: 125.90 km
# MJD 58412.000000 (2018 Oct 21  0:00)
ZTF00Y9 = ZTF00Yp = ZTF00ah
1 89994U 00000AAF 18294.49919926  .00000000  00000-0  00000-0 0  2647
2 89994 025.3022 015.2527 7925038 190.3229 275.7912 00.94196720    08

# Worst residual: 114.45 km
# MJD 58413.000000 (2018 Oct 22  0:00)
ZTF00Y9 = ZTF00Yp = ZTF00ah
1 89994U 00000AAF 18295.49919926  .00000000  00000-0  00000-0 0  2648
2 89994 025.3556 015.1938 7919292 190.8108 254.3666 00.94140240    06

# Worst residual: 55.91 km
# MJD 58414.000000 (2018 Oct 23  0:00)
ZTF00Y9 = ZTF00Yp = ZTF00ah
1 89994U 00000AAF 18296.49919926  .00000000  00000-0  00000-0 0  2649
2 89994 025.4090 015.1367 7911140 191.2984 232.9695 00.94089566    04

# Worst residual: 44.85 km
# MJD 58415.000000 (2018 Oct 24  0:00)
ZTF00Y9 = ZTF00Yp = ZTF00ah
1 89994U 00000AAF 18297.49919926  .00000000  00000-0  00000-0 0  2640
2 89994 025.4596 015.0719 7903846 191.8201 211.5235 00.94058894    00
